start=new Date('2021-10-06T00:00:00.000Z').valueOf();
sats=[{"OBJECT_TYPE":"PAYLOAD","TIME_SYSTEM":"UTC","NORAD_CAT_ID":"48335","RA_OF_ASC_NODE":"157.4869","CLASSIFICATION_TYPE":"U","MEAN_MOTION":"15.06387573","ELEMENT_SET_NO":"999","DECAY_DATE":null,"MEAN_MOTION_DDOT":"0.0000000000000","GP_ID":"186277430","SEMIMAJOR_AXIS":"6925.387","MEAN_ANOMALY":"290.6035","REF_FRAME":"TEME","TLE_LINE1":"1 48335U 21036BM  21278.38602084 -.00000382  00000-0 -67173-5 0  9990","APOAPSIS":"548.412","CENTER_NAME":"EARTH","PERIAPSIS":"546.091","EPHEMERIS_TYPE":"0","PERIOD":"95.593","MEAN_ELEMENT_THEORY":"SGP4","RCS_SIZE":"LARGE","REV_AT_EPOCH":"2442","FILE":"3145988","TLE_LINE2":"2 48335  53.0584 157.4869 0001676  69.5133 290.6035 15.06387573 24429","LAUNCH_DATE":"2021-04-29","BSTAR":"-0.00000671730000","MEAN_MOTION_DOT":"-0.00000382","ECCENTRICITY":"0.00016760","COUNTRY_CODE":"US","EPOCH":"2021-10-05T09:15:52.200576","INCLINATION":"53.0584","OBJECT_ID":"2021-036BM","OBJECT_NAME":"STARLINK-2441","SITE":"AFETR","ARG_OF_PERICENTER":"69.5133"},{"RA_OF_ASC_NODE":"57.4676","CLASSIFICATION_TYPE":"U","MEAN_MOTION":"15.06396734","OBJECT_TYPE":"PAYLOAD","NORAD_CAT_ID":"48353","TIME_SYSTEM":"UTC","MEAN_MOTION_DDOT":"0.0000000000000","ELEMENT_SET_NO":"999","DECAY_DATE":null,"APOAPSIS":"548.527","CENTER_NAME":"EARTH","TLE_LINE1":"1 48353U 21038A   21278.39153559  .00000968  00000-0  83900-4 0  9994","PERIAPSIS":"545.920","GP_ID":"186276929","SEMIMAJOR_AXIS":"6925.359","REF_FRAME":"TEME","MEAN_ANOMALY":"261.9605","EPHEMERIS_TYPE":"0","PERIOD":"95.592","FILE":"3145988","TLE_LINE2":"2 48353  53.0573  57.4676 0001882  98.1597 261.9605 15.06396734 23414","LAUNCH_DATE":"2021-05-04","MEAN_ELEMENT_THEORY":"SGP4","RCS_SIZE":"LARGE","REV_AT_EPOCH":"2341","ECCENTRICITY":"0.00018820","MEAN_MOTION_DOT":"0.00000968","EPOCH":"2021-10-05T09:23:48.674976","COUNTRY_CODE":"US","BSTAR":"0.00008390000000","OBJECT_ID":"2021-038A","INCLINATION":"53.0573","ARG_OF_PERICENTER":"98.1597","SITE":"AFETR","OBJECT_NAME":"STARLINK-2613"},{"RA_OF_ASC_NODE":"57.4701","CLASSIFICATION_TYPE":"U","MEAN_MOTION":"15.06400130","OBJECT_TYPE":"PAYLOAD","NORAD_CAT_ID":"48354","TIME_SYSTEM":"UTC","MEAN_MOTION_DDOT":"0.0000000000000","ELEMENT_SET_NO":"999","DECAY_DATE":null,"APOAPSIS":"548.399","CENTER_NAME":"EARTH","TLE_LINE1":"1 48354U 21038B   21278.38784844  .00001240  00000-0  10213-3 0  9991","PERIAPSIS":"546.028","GP_ID":"186277681","SEMIMAJOR_AXIS":"6925.348","REF_FRAME":"TEME","MEAN_ANOMALY":"264.9241","EPHEMERIS_TYPE":"0","PERIOD":"95.592","FILE":"3145988","TLE_LINE2":"2 48354  53.0560  57.4701 0001712  95.1944 264.9241 15.06400130 23410","LAUNCH_DATE":"2021-05-04","MEAN_ELEMENT_THEORY":"SGP4","RCS_SIZE":"LARGE","REV_AT_EPOCH":"2341","ECCENTRICITY":"0.00017120","MEAN_MOTION_DOT":"0.00001240","EPOCH":"2021-10-05T09:18:30.105216","COUNTRY_CODE":"US","BSTAR":"0.00010213000000","OBJECT_ID":"2021-038B","INCLINATION":"53.0560","ARG_OF_PERICENTER":"95.1944","SITE":"AFETR","OBJECT_NAME":"STARLINK-2674"},{"DECAY_DATE":null,"ELEMENT_SET_NO":"999","MEAN_MOTION_DDOT":"0.0000000000000","NORAD_CAT_ID":"48355","TIME_SYSTEM":"UTC","OBJECT_TYPE":"PAYLOAD","MEAN_MOTION":"15.06394667","CLASSIFICATION_TYPE":"U","RA_OF_ASC_NODE":"57.4927","PERIOD":"95.592","EPHEMERIS_TYPE":"0","REF_FRAME":"TEME","MEAN_ANOMALY":"272.3648","GP_ID":"186277432","SEMIMAJOR_AXIS":"6925.365","PERIAPSIS":"545.859","CENTER_NAME":"EARTH","APOAPSIS":"548.600","TLE_LINE1":"1 48355U 21038C   21278.38416649  .00001095  00000-0  92406-4 0  9990","BSTAR":"0.00009240600000","EPOCH":"2021-10-05T09:13:11.984736","COUNTRY_CODE":"US","ECCENTRICITY":"0.00019790","MEAN_MOTION_DOT":"0.00001095","REV_AT_EPOCH":"2341","RCS_SIZE":"LARGE","MEAN_ELEMENT_THEORY":"SGP4","TLE_LINE2":"2 48355  53.0570  57.4927 0001979  87.7567 272.3648 15.06394667 23416","LAUNCH_DATE":"2021-05-04","FILE":"3145988","OBJECT_NAME":"STARLINK-2635","ARG_OF_PERICENTER":"87.7567","SITE":"AFETR","OBJECT_ID":"2021-038C","INCLINATION":"53.0570"},{"EPOCH":"2021-10-05T09:07:54.288480","COUNTRY_CODE":"US","ECCENTRICITY":"0.00012710","MEAN_MOTION_DOT":"0.00001078","BSTAR":"0.00009130600000","TLE_LINE2":"2 48356  53.0679  57.4406 0001271  73.9159 286.1970 15.06388918 23411","LAUNCH_DATE":"2021-05-04","FILE":"3145988","REV_AT_EPOCH":"2341","RCS_SIZE":"LARGE","MEAN_ELEMENT_THEORY":"SGP4","ARG_OF_PERICENTER":"73.9159","SITE":"AFETR","OBJECT_NAME":"STARLINK-2637","OBJECT_ID":"2021-038D","INCLINATION":"53.0679","MEAN_MOTION_DDOT":"0.0000000000000","DECAY_DATE":null,"ELEMENT_SET_NO":"999","MEAN_MOTION":"15.06388918","RA_OF_ASC_NODE":"57.4406","CLASSIFICATION_TYPE":"U","NORAD_CAT_ID":"48356","TIME_SYSTEM":"UTC","OBJECT_TYPE":"PAYLOAD","PERIOD":"95.593","EPHEMERIS_TYPE":"0","PERIAPSIS":"546.367","APOAPSIS":"548.128","CENTER_NAME":"EARTH","TLE_LINE1":"1 48356U 21038D   21278.38048945  .00001078  00000-0  91306-4 0  9990","REF_FRAME":"TEME","MEAN_ANOMALY":"286.1970","SEMIMAJOR_AXIS":"6925.383","GP_ID":"186276180"},{"REF_FRAME":"TEME","MEAN_ANOMALY":"263.2131","SEMIMAJOR_AXIS":"6925.383","GP_ID":"186276430","PERIAPSIS":"545.928","CENTER_NAME":"EARTH","APOAPSIS":"548.569","TLE_LINE1":"1 48357U 21038E   21278.37680832 -.00000291  00000-0 -61415-6 0  9995","PERIOD":"95.593","EPHEMERIS_TYPE":"0","NORAD_CAT_ID":"48357","TIME_SYSTEM":"UTC","OBJECT_TYPE":"PAYLOAD","MEAN_MOTION":"15.06388660","RA_OF_ASC_NODE":"57.5198","CLASSIFICATION_TYPE":"U","DECAY_DATE":null,"ELEMENT_SET_NO":"999","MEAN_MOTION_DDOT":"0.0000000000000","OBJECT_ID":"2021-038E","INCLINATION":"53.0559","OBJECT_NAME":"STARLINK-2636","ARG_OF_PERICENTER":"96.9075","SITE":"AFETR","RCS_SIZE":"LARGE","REV_AT_EPOCH":"2341","MEAN_ELEMENT_THEORY":"SGP4","LAUNCH_DATE":"2021-05-04","TLE_LINE2":"2 48357  53.0559  57.5198 0001907  96.9075 263.2131 15.06388660 23415","FILE":"3145988","BSTAR":"-0.00000061415000","EPOCH":"2021-10-05T09:02:36.238848","COUNTRY_CODE":"US","ECCENTRICITY":"0.00019070","MEAN_MOTION_DOT":"-0.00000291"},{"OBJECT_NAME":"STARLINK-2624","SITE":"AFETR","ARG_OF_PERICENTER":"95.3360","INCLINATION":"53.0531","OBJECT_ID":"2021-038F","BSTAR":"0.00002795900000","MEAN_MOTION_DOT":"0.00000135","ECCENTRICITY":"0.00016820","COUNTRY_CODE":"US","EPOCH":"2021-10-05T10:32:49.722432","MEAN_ELEMENT_THEORY":"SGP4","RCS_SIZE":"LARGE","REV_AT_EPOCH":"2341","FILE":"3145988","LAUNCH_DATE":"2021-05-04","TLE_LINE2":"2 48358  53.0531  57.2544 0001682  95.3360 264.7821 15.06399308 23411","EPHEMERIS_TYPE":"0","PERIOD":"95.592","SEMIMAJOR_AXIS":"6925.351","GP_ID":"186277182","MEAN_ANOMALY":"264.7821","REF_FRAME":"TEME","TLE_LINE1":"1 48358U 21038F   21278.43946438  .00000135  00000-0  27959-4 0  9998","APOAPSIS":"548.381","CENTER_NAME":"EARTH","PERIAPSIS":"546.051","ELEMENT_SET_NO":"999","DECAY_DATE":null,"MEAN_MOTION_DDOT":"0.0000000000000","OBJECT_TYPE":"PAYLOAD","TIME_SYSTEM":"UTC","NORAD_CAT_ID":"48358","CLASSIFICATION_TYPE":"U","RA_OF_ASC_NODE":"57.2544","MEAN_MOTION":"15.06399308"},{"REV_AT_EPOCH":"2336","RCS_SIZE":"LARGE","MEAN_ELEMENT_THEORY":"SGP4","TLE_LINE2":"2 48359  53.0564  58.7427 0001573 101.1226 258.9939 15.06388571 23369","LAUNCH_DATE":"2021-05-04","FILE":"3145988","BSTAR":"-0.00001909800000","COUNTRY_CODE":"US","EPOCH":"2021-10-05T02:29:49.415424","MEAN_MOTION_DOT":"-0.00000566","ECCENTRICITY":"0.00015730","INCLINATION":"53.0564","OBJECT_ID":"2021-038G","OBJECT_NAME":"STARLINK-2628","SITE":"AFETR","ARG_OF_PERICENTER":"101.1226","TIME_SYSTEM":"UTC","NORAD_CAT_ID":"48359","OBJECT_TYPE":"PAYLOAD","MEAN_MOTION":"15.06388571","CLASSIFICATION_TYPE":"U","RA_OF_ASC_NODE":"58.7427","ELEMENT_SET_NO":"999","DECAY_DATE":null,"MEAN_MOTION_DDOT":"0.0000000000000","MEAN_ANOMALY":"258.9939","REF_FRAME":"TEME","SEMIMAJOR_AXIS":"6925.384","GP_ID":"186277932","PERIAPSIS":"546.159","TLE_LINE1":"1 48359U 21038G   21278.10404416 -.00000566  00000-0 -19098-4 0  9993","APOAPSIS":"548.338","CENTER_NAME":"EARTH","PERIOD":"95.593","EPHEMERIS_TYPE":"0"},{"BSTAR":"0.00000506350000","MEAN_MOTION_DOT":"-0.00000206","ECCENTRICITY":"0.00018110","COUNTRY_CODE":"US","EPOCH":"2021-10-05T02:24:31.040064","MEAN_ELEMENT_THEORY":"SGP4","RCS_SIZE":"LARGE","REV_AT_EPOCH":"2336","FILE":"3145988","TLE_LINE2":"2 48360  53.0545  58.7542 0001811  90.3170 269.8026 15.06389438 23361","LAUNCH_DATE":"2021-05-04","OBJECT_NAME":"STARLINK-2622","SITE":"AFETR","ARG_OF_PERICENTER":"90.3170","INCLINATION":"53.0545","OBJECT_ID":"2021-038H","DECAY_DATE":null,"ELEMENT_SET_NO":"999","MEAN_MOTION_DDOT":"0.0000000000000","OBJECT_TYPE":"PAYLOAD","TIME_SYSTEM":"UTC","NORAD_CAT_ID":"48360","CLASSIFICATION_TYPE":"U","RA_OF_ASC_NODE":"58.7542","MEAN_MOTION":"15.06389438","EPHEMERIS_TYPE":"0","PERIOD":"95.593","SEMIMAJOR_AXIS":"6925.381","GP_ID":"186277934","MEAN_ANOMALY":"269.8026","REF_FRAME":"TEME","TLE_LINE1":"1 48360U 21038H   21278.10035926 -.00000206  00000-0  50635-5 0  9994","CENTER_NAME":"EARTH","APOAPSIS":"548.500","PERIAPSIS":"545.992"},{"BSTAR":"-0.00012795000000","EPOCH":"2021-10-05T02:19:12.433152","COUNTRY_CODE":"US","ECCENTRICITY":"0.00012650","MEAN_MOTION_DOT":"-0.00002186","REV_AT_EPOCH":"2336","RCS_SIZE":"LARGE","MEAN_ELEMENT_THEORY":"SGP4","TLE_LINE2":"2 48361  53.0555  58.8573 0001265 103.5528 256.5602 15.06388514 23362","LAUNCH_DATE":"2021-05-04","FILE":"3145988","OBJECT_NAME":"STARLINK-2591","ARG_OF_PERICENTER":"103.5528","SITE":"AFETR","OBJECT_ID":"2021-038J","INCLINATION":"53.0555","ELEMENT_SET_NO":"999","DECAY_DATE":null,"MEAN_MOTION_DDOT":"0.0000000000000","NORAD_CAT_ID":"48361","TIME_SYSTEM":"UTC","OBJECT_TYPE":"PAYLOAD","MEAN_MOTION":"15.06388514","RA_OF_ASC_NODE":"58.8573","CLASSIFICATION_TYPE":"U","PERIOD":"95.593","EPHEMERIS_TYPE":"0","REF_FRAME":"TEME","MEAN_ANOMALY":"256.5602","GP_ID":"186276930","SEMIMAJOR_AXIS":"6925.384","PERIAPSIS":"546.373","CENTER_NAME":"EARTH","APOAPSIS":"548.125","TLE_LINE1":"1 48361U 21038J   21278.09667168 -.00002186  00000-0 -12795-3 0  9995"}];
